[{"OBJECT_NAME":"STARLINK-34392","OBJECT_ID":"2025-130P","EPOCH":"2025-11-23T23:24:13.742784","MEAN_MOTION":15.30217606,"ECCENTRICITY":0.0001385,"INCLINATION":53.1598,"RA_OF_ASC_NODE":219.8617,"ARG_OF_PERICENTER":55.1526,"MEAN_ANOMALY":304.9605,"EPHEMERIS_TYPE":0,"CLASSIFICATION_TYPE":"U","NORAD_CAT_ID":64451,"ELEMENT_SET_NO":999,"REV_AT_EPOCH":2451,"BSTAR":0.00091745,"MEAN_MOTION_DOT":0.00026926,"MEAN_MOTION_DDOT":0},{"OBJECT_NAME":"STARLINK-34367","OBJECT_ID":"2025-130Q","EPOCH":"2025-11-23T23:55:58.182816","MEAN_MOTION":15.3020314,"ECCENTRICITY":0.0001274,"INCLINATION":53.1571,"RA_OF_ASC_NODE":219.2899,"ARG_OF_PERICENTER":78.1375,"MEAN_ANOMALY":281.9768,"EPHEMERIS_TYPE":0,"CLASSIFICATION_TYPE":"U","NORAD_CAT_ID":64452,"ELEMENT_SET_NO":999,"REV_AT_EPOCH":2451,"BSTAR":0.00064986,"MEAN_MOTION_DOT":0.00018939,"MEAN_MOTION_DDOT":0},{"OBJECT_NAME":"STARLINK-34221","OBJECT_ID":"2025-130R","EPOCH":"2025-11-24T00:29:24.472032","MEAN_MOTION":15.30202163,"ECCENTRICITY":0.0001389,"INCLINATION":53.1593,"RA_OF_ASC_NODE":219.4343,"ARG_OF_PERICENTER":69.5445,"MEAN_ANOMALY":290.5705,"EPHEMERIS_TYPE":0,"CLASSIFICATION_TYPE":"U","NORAD_CAT_ID":64453,"ELEMENT_SET_NO":999,"REV_AT_EPOCH":2452,"BSTAR":0.00093686,"MEAN_MOTION_DOT":0.00027492,"MEAN_MOTION_DDOT":0},{"OBJECT_NAME":"STARLINK-34282","OBJECT_ID":"2025-130S","EPOCH":"2025-11-23T23:32:34.956096","MEAN_MOTION":15.30211284,"ECCENTRICITY":0.0001689,"INCLINATION":53.1591,"RA_OF_ASC_NODE":222.0254,"ARG_OF_PERICENTER":141.12,"MEAN_ANOMALY":218.9923,"EPHEMERIS_TYPE":0,"CLASSIFICATION_TYPE":"U","NORAD_CAT_ID":64454,"ELEMENT_SET_NO":999,"REV_AT_EPOCH":2448,"BSTAR":0.00092809,"MEAN_MOTION_DOT":0.00027239,"MEAN_MOTION_DDOT":0},{"OBJECT_NAME":"STARLINK-34295","OBJECT_ID":"2025-130T","EPOCH":"2025-11-23T23:12:04.061088","MEAN_MOTION":15.30196753,"ECCENTRICITY":0.0001261,"INCLINATION":53.1608,"RA_OF_ASC_NODE":219.807,"ARG_OF_PERICENTER":89.6828,"MEAN_ANOMALY":270.4317,"EPHEMERIS_TYPE":0,"CLASSIFICATION_TYPE":"U","NORAD_CAT_ID":64455,"ELEMENT_SET_NO":999,"REV_AT_EPOCH":2451,"BSTAR":0.00052972,"MEAN_MOTION_DOT":0.0001536,"MEAN_MOTION_DDOT":0},{"OBJECT_NAME":"STARLINK-34430","OBJECT_ID":"2025-130U","EPOCH":"2025-11-23T23:45:20.117088","MEAN_MOTION":15.30200367,"ECCENTRICITY":0.0001056,"INCLINATION":53.1576,"RA_OF_ASC_NODE":219.2409,"ARG_OF_PERICENTER":64.2257,"MEAN_ANOMALY":295.8852,"EPHEMERIS_TYPE":0,"CLASSIFICATION_TYPE":"U","NORAD_CAT_ID":64456,"ELEMENT_SET_NO":999,"REV_AT_EPOCH":2452,"BSTAR":0.0009003,"MEAN_MOTION_DOT":0.000264,"MEAN_MOTION_DDOT":0},{"OBJECT_NAME":"STARLINK-34445","OBJECT_ID":"2025-130V","EPOCH":"2025-11-24T00:27:53.053056","MEAN_MOTION":15.3019934,"ECCENTRICITY":9.5e-5,"INCLINATION":53.1589,"RA_OF_ASC_NODE":219.4253,"ARG_OF_PERICENTER":98.4253,"MEAN_ANOMALY":261.6855,"EPHEMERIS_TYPE":0,"CLASSIFICATION_TYPE":"U","NORAD_CAT_ID":64457,"ELEMENT_SET_NO":999,"REV_AT_EPOCH":2452,"BSTAR":0.0008579,"MEAN_MOTION_DOT":0.00025135,"MEAN_MOTION_DDOT":0},{"OBJECT_NAME":"STARLINK-34439","OBJECT_ID":"2025-130W","EPOCH":"2025-11-23T23:51:25.060320","MEAN_MOTION":15.30213756,"ECCENTRICITY":0.0001438,"INCLINATION":53.1581,"RA_OF_ASC_NODE":219.2643,"ARG_OF_PERICENTER":70.5803,"MEAN_ANOMALY":289.5353,"EPHEMERIS_TYPE":0,"CLASSIFICATION_TYPE":"U","NORAD_CAT_ID":64458,"ELEMENT_SET_NO":999,"REV_AT_EPOCH":2452,"BSTAR":0.00083108,"MEAN_MOTION_DOT":0.00024346,"MEAN_MOTION_DDOT":0},{"OBJECT_NAME":"STARLINK-34421","OBJECT_ID":"2025-130X","EPOCH":"2025-11-24T00:33:57.940128","MEAN_MOTION":15.30202135,"ECCENTRICITY":0.0001483,"INCLINATION":53.1596,"RA_OF_ASC_NODE":219.4538,"ARG_OF_PERICENTER":71.1415,"MEAN_ANOMALY":288.9747,"EPHEMERIS_TYPE":0,"CLASSIFICATION_TYPE":"U","NORAD_CAT_ID":64459,"ELEMENT_SET_NO":999,"REV_AT_EPOCH":2452,"BSTAR":0.0009288,"MEAN_MOTION_DOT":0.00027252,"MEAN_MOTION_DDOT":0},{"OBJECT_NAME":"STARLINK-34423","OBJECT_ID":"2025-130Y","EPOCH":"2025-11-23T23:42:17.853696","MEAN_MOTION":15.3020028,"ECCENTRICITY":0.0001347,"INCLINATION":53.1578,"RA_OF_ASC_NODE":219.2273,"ARG_OF_PERICENTER":88.2621,"MEAN_ANOMALY":271.8534,"EPHEMERIS_TYPE":0,"CLASSIFICATION_TYPE":"U","NORAD_CAT_ID":64460,"ELEMENT_SET_NO":999,"REV_AT_EPOCH":2452,"BSTAR":0.00063723,"MEAN_MOTION_DOT":0.00018561,"MEAN_MOTION_DDOT":0},{"OBJECT_NAME":"STARLINK-34418","OBJECT_ID":"2025-130Z","EPOCH":"2025-11-23T23:13:35.085216","MEAN_MOTION":15.30223716,"ECCENTRICITY":6.91e-5,"INCLINATION":53.1607,"RA_OF_ASC_NODE":219.81,"ARG_OF_PERICENTER":59.0474,"MEAN_ANOMALY":301.0594,"EPHEMERIS_TYPE":0,"CLASSIFICATION_TYPE":"U","NORAD_CAT_ID":64461,"ELEMENT_SET_NO":999,"REV_AT_EPOCH":2451,"BSTAR":0.0010883,"MEAN_MOTION_DOT":0.00032035,"MEAN_MOTION_DDOT":0},{"OBJECT_NAME":"STARLINK-34336","OBJECT_ID":"2025-130AA","EPOCH":"2025-11-23T23:50:48.279840","MEAN_MOTION":15.301992,"ECCENTRICITY":0.0001149,"INCLINATION":53.1581,"RA_OF_ASC_NODE":222.0346,"ARG_OF_PERICENTER":80.4594,"MEAN_ANOMALY":279.6536,"EPHEMERIS_TYPE":0,"CLASSIFICATION_TYPE":"U","NORAD_CAT_ID":64462,"ELEMENT_SET_NO":999,"REV_AT_EPOCH":2448,"BSTAR":0.00099434,"MEAN_MOTION_DOT":0.00029205,"MEAN_MOTION_DDOT":0},{"OBJECT_NAME":"STARLINK-34400","OBJECT_ID":"2025-130AB","EPOCH":"2025-11-23T23:41:42.186048","MEAN_MOTION":15.30199692,"ECCENTRICITY":0.0001503,"INCLINATION":53.1587,"RA_OF_ASC_NODE":222.0599,"ARG_OF_PERICENTER":63.0969,"MEAN_ANOMALY":297.0186,"EPHEMERIS_TYPE":0,"CLASSIFICATION_TYPE":"U","NORAD_CAT_ID":64463,"ELEMENT_SET_NO":999,"REV_AT_EPOCH":2448,"BSTAR":0.0007321,"MEAN_MOTION_DOT":0.00021386,"MEAN_MOTION_DDOT":0},{"OBJECT_NAME":"STARLINK-34429","OBJECT_ID":"2025-130AC","EPOCH":"2025-11-23T22:37:06.841920","MEAN_MOTION":15.30217555,"ECCENTRICITY":0.0001045,"INCLINATION":53.1576,"RA_OF_ASC_NODE":219.6521,"ARG_OF_PERICENTER":59.7523,"MEAN_ANOMALY":300.3581,"EPHEMERIS_TYPE":0,"CLASSIFICATION_TYPE":"U","NORAD_CAT_ID":64464,"ELEMENT_SET_NO":999,"REV_AT_EPOCH":2451,"BSTAR":0.0010351,"MEAN_MOTION_DOT":0.00030441,"MEAN_MOTION_DDOT":0},{"OBJECT_NAME":"STARLINK-34449","OBJECT_ID":"2025-130AD","EPOCH":"2025-11-24T00:37:00.124032","MEAN_MOTION":15.30198562,"ECCENTRICITY":0.0001681,"INCLINATION":53.1604,"RA_OF_ASC_NODE":219.4544,"ARG_OF_PERICENTER":62.0334,"MEAN_ANOMALY":298.0836,"EPHEMERIS_TYPE":0,"CLASSIFICATION_TYPE":"U","NORAD_CAT_ID":64465,"ELEMENT_SET_NO":999,"REV_AT_EPOCH":2452,"BSTAR":0.0010131,"MEAN_MOTION_DOT":0.00029765,"MEAN_MOTION_DDOT":0},{"OBJECT_NAME":"STARLINK-34493","OBJECT_ID":"2025-133A","EPOCH":"2025-11-24T04:00:01.998720","MEAN_MOTION":15.30156303,"ECCENTRICITY":0.0001418,"INCLINATION":53.1595,"RA_OF_ASC_NODE":247.1787,"ARG_OF_PERICENTER":67.3076,"MEAN_ANOMALY":131.3087,"EPHEMERIS_TYPE":0,"CLASSIFICATION_TYPE":"U","NORAD_CAT_ID":64472,"ELEMENT_SET_NO":999,"REV_AT_EPOCH":593,"BSTAR":0.0019587,"MEAN_MOTION_DOT":0.00058026,"MEAN_MOTION_DDOT":0}]
