STARLINK-34392          
1 64451U 25130P   25327.97515906  .00026926  00000+0  91745-3 0  9995
2 64451  53.1598 219.8617 0001385  55.1526 304.9605 15.30217606 24518
STARLINK-34367          
1 64452U 25130Q   25327.99720119  .00018939  00000+0  64986-3 0  9994
2 64452  53.1571 219.2899 0001274  78.1375 281.9768 15.30203140 24512
STARLINK-34221          
1 64453U 25130R   25328.02042213  .00027492  00000+0  93686-3 0  9995
2 64453  53.1593 219.4343 0001389  69.5445 290.5705 15.30202163 24524
STARLINK-34282          
1 64454U 25130S   25327.98096014  .00027239  00000+0  92809-3 0  9993
2 64454  53.1591 222.0254 0001689 141.1200 218.9923 15.30211284 24488
STARLINK-34295          
1 64455U 25130T   25327.96671367  .00015360  00000+0  52972-3 0  9991
2 64455  53.1608 219.8070 0001261  89.6828 270.4317 15.30196753 24513
STARLINK-34430          
1 64456U 25130U   25327.98981617  .00026400  00000+0  90030-3 0  9990
2 64456  53.1576 219.2409 0001056  64.2257 295.8852 15.30200367 24528
STARLINK-34445          
1 64457U 25130V   25328.01936404  .00025135  00000+0  85790-3 0  9991
2 64457  53.1589 219.4253 0000950  98.4253 261.6855 15.30199340 24521
STARLINK-34439          
1 64458U 25130W   25327.99404005  .00024346  00000+0  83108-3 0  9999
2 64458  53.1581 219.2643 0001438  70.5803 289.5353 15.30213756 24529
STARLINK-34421          
1 64459U 25130X   25328.02358727  .00027252  00000+0  92880-3 0  9990
2 64459  53.1596 219.4538 0001483  71.1415 288.9747 15.30202135 24526
STARLINK-34423          
1 64460U 25130Y   25327.98770664  .00018561  00000+0  63723-3 0  9991
2 64460  53.1578 219.2273 0001347  88.2621 271.8534 15.30200280 24523
STARLINK-34418          
1 64461U 25130Z   25327.96776719  .00032035  00000+0  10883-2 0  9997
2 64461  53.1607 219.8100 0000691  59.0474 301.0594 15.30223716 24515
STARLINK-34336          
1 64462U 25130AA  25327.99361435  .00029205  00000+0  99434-3 0  9991
2 64462  53.1581 222.0346 0001149  80.4594 279.6536 15.30199200 24487
STARLINK-34400          
1 64463U 25130AB  25327.98729382  .00021386  00000+0  73210-3 0  9996
2 64463  53.1587 222.0599 0001503  63.0969 297.0186 15.30199692 24481
STARLINK-34429          
1 64464U 25130AC  25327.94244030  .00030441  00000+0  10351-2 0  9993
2 64464  53.1576 219.6521 0001045  59.7523 300.3581 15.30217555 24516
STARLINK-34449          
1 64465U 25130AD  25328.02569588  .00029765  00000+0  10131-2 0  9995
2 64465  53.1604 219.4544 0001681  62.0334 298.0836 15.30198562 24528
STARLINK-34493          
1 64472U 25133A   25328.16668980  .00058026  00000+0  19587-2 0  9993
2 64472  53.1595 247.1787 0001418  67.3076 131.3087 15.30156303  5939
